{
  "type": "FeatureCollection",
  "features": [
    {
      "type": "Feature",
      "properties": {
        "norad_id": 34350,
        "name": "IRIDIUM 33 DEB",
        "group": "iridium-33-debris",
        "lat": -21.366796634464237,
        "lon": -174.83322613304398,
        "alt_km": 738.003840762558,
        "timestamp": "2025-12-10T14:53:37.473302+00:00",
        "meta_object_name": "IRIDIUM 33 DEB",
        "meta_object_id": "1997-051ES",
        "meta_epoch": "2025-12-10T02:36:29.822400",
        "meta_mean_motion": 14.45377158,
        "meta_eccentricity": 0.00225856,
        "meta_inclination": 86.3276,
        "meta_ra_of_asc_node": 3.949,
        "meta_arg_of_pericenter": 143.3775,
        "meta_mean_anomaly": 275.8261,
        "meta_ephemeris_type": 0,
        "meta_classification_type": "U",
        "meta_norad_cat_id": 34350,
        "meta_element_set_no": 999,
        "meta_rev_at_epoch": 88255,
        "meta_bstar": 0.0004557771,
        "meta_mean_motion_dot": 1.627e-05,
        "meta_mean_motion_ddot": 0,
        "tle_line1": "1 34350U 97051ES  25344.10867850  .00001627  00000+0  45578-3 0  9997",
        "tle_line2": "2 34350  86.3276   3.9490 0022585 143.3775 275.8261 14.45377158882550"
      },
      "geometry": {
        "type": "Point",
        "coordinates": [
          -174.83322613304398,
          -21.366796634464237
        ]
      }
    },
    {
      "type": "Feature",
      "properties": {
        "norad_id": 34366,
        "name": "IRIDIUM 33 DEB",
        "group": "iridium-33-debris",
        "lat": 76.60075632096316,
        "lon": -145.22440144687667,
        "alt_km": 693.8704228613042,
        "timestamp": "2025-12-10T14:53:37.473312+00:00",
        "meta_object_name": "IRIDIUM 33 DEB",
        "meta_object_id": "1997-051FJ",
        "meta_epoch": "2025-12-10T04:47:12.333120",
        "meta_mean_motion": 14.54021911,
        "meta_eccentricity": 0.00223081,
        "meta_inclination": 86.3691,
        "meta_ra_of_asc_node": 50.4179,
        "meta_arg_of_pericenter": 147.6537,
        "meta_mean_anomaly": 272.451,
        "meta_ephemeris_type": 0,
        "meta_classification_type": "U",
        "meta_norad_cat_id": 34366,
        "meta_element_set_no": 999,
        "meta_rev_at_epoch": 88145,
        "meta_bstar": 0.0016468229,
        "meta_mean_motion_dot": 6.988e-05,
        "meta_mean_motion_ddot": 0,
        "tle_line1": "1 34366U 97051FJ  25344.19944830  .00006988  00000+0  16468-2 0  9997",
        "tle_line2": "2 34366  86.3691  50.4179 0022308 147.6537 272.4510 14.54021911881456"
      },
      "geometry": {
        "type": "Point",
        "coordinates": [
          -145.22440144687667,
          76.60075632096316
        ]
      }
    },
    {
      "type": "Feature",
      "properties": {
        "norad_id": 34375,
        "name": "IRIDIUM 33 DEB",
        "group": "iridium-33-debris",
        "lat": -66.51591861277366,
        "lon": 175.29785032510665,
        "alt_km": 909.2577342269842,
        "timestamp": "2025-12-10T14:53:37.473321+00:00",
        "meta_object_name": "IRIDIUM 33 DEB",
        "meta_object_id": "1997-051FT",
        "meta_epoch": "2025-12-10T07:35:27.786912",
        "meta_mean_motion": 14.17985501,
        "meta_eccentricity": 0.01031236,
        "meta_inclination": 86.4328,
        "meta_ra_of_asc_node": 183.6751,
        "meta_arg_of_pericenter": 134.3251,
        "meta_mean_anomaly": 46.2443,
        "meta_ephemeris_type": 0,
        "meta_classification_type": "U",
        "meta_norad_cat_id": 34375,
        "meta_element_set_no": 999,
        "meta_rev_at_epoch": 86677,
        "meta_bstar": 0.00060253944,
        "meta_mean_motion_dot": 1.319e-05,
        "meta_mean_motion_ddot": 0,
        "tle_line1": "1 34375U 97051FT  25344.31629383  .00001319  00000+0  60254-3 0  9990",
        "tle_line2": "2 34375  86.4328 183.6751 0103123 134.3251  46.2443 14.17985501866773"
      },
      "geometry": {
        "type": "Point",
        "coordinates": [
          175.29785032510665,
          -66.51591861277366
        ]
      }
    },
    {
      "type": "Feature",
      "properties": {
        "norad_id": 34376,
        "name": "IRIDIUM 33 DEB",
        "group": "iridium-33-debris",
        "lat": -34.08174337894179,
        "lon": 4.982161637618757,
        "alt_km": 708.151851145034,
        "timestamp": "2025-12-10T14:53:37.473330+00:00",
        "meta_object_name": "IRIDIUM 33 DEB",
        "meta_object_id": "1997-051FU",
        "meta_epoch": "2025-12-10T01:54:49.641408",
        "meta_mean_motion": 14.6250541,
        "meta_eccentricity": 0.0026885,
        "meta_inclination": 86.2988,
        "meta_ra_of_asc_node": 7.7353,
        "meta_arg_of_pericenter": 175.5963,
        "meta_mean_anomaly": 184.549,
        "meta_ephemeris_type": 0,
        "meta_classification_type": "U",
        "meta_norad_cat_id": 34376,
        "meta_element_set_no": 999,
        "meta_rev_at_epoch": 87968,
        "meta_bstar": 0.0020749309,
        "meta_mean_motion_dot": 0.00010599,
        "meta_mean_motion_ddot": 0,
        "tle_line1": "1 34376U 97051FU  25344.07974122  .00010599  00000+0  20749-2 0  9992",
        "tle_line2": "2 34376  86.2988   7.7353 0026885 175.5963 184.5490 14.62505410879683"
      },
      "geometry": {
        "type": "Point",
        "coordinates": [
          4.982161637618757,
          -34.08174337894179
        ]
      }
    },
    {
      "type": "Feature",
      "properties": {
        "norad_id": 34486,
        "name": "IRIDIUM 33 DEB",
        "group": "iridium-33-debris",
        "lat": -70.07645676702957,
        "lon": 2.9814842808230733,
        "alt_km": 597.0087388034481,
        "timestamp": "2025-12-10T14:53:37.473339+00:00",
        "meta_object_name": "IRIDIUM 33 DEB",
        "meta_object_id": "1997-051GB",
        "meta_epoch": "2025-12-10T02:36:03.422016",
        "meta_mean_motion": 14.95601936,
        "meta_eccentricity": 0.00134533,
        "meta_inclination": 86.3935,
        "meta_ra_of_asc_node": 13.2388,
        "meta_arg_of_pericenter": 121.1387,
        "meta_mean_anomaly": 292.5306,
        "meta_ephemeris_type": 0,
        "meta_classification_type": "U",
        "meta_norad_cat_id": 34486,
        "meta_element_set_no": 999,
        "meta_rev_at_epoch": 88947,
        "meta_bstar": 0.0030255759,
        "meta_mean_motion_dot": 0.00033786,
        "meta_mean_motion_ddot": 0,
        "tle_line1": "1 34486U 97051GB  25344.10837294  .00033786  00000+0  30256-2 0  9993",
        "tle_line2": "2 34486  86.3935  13.2388 0013453 121.1387 292.5306 14.95601936889472"
      },
      "geometry": {
        "type": "Point",
        "coordinates": [
          2.9814842808230733,
          -70.07645676702957
        ]
      }
    },
    {
      "type": "Feature",
      "properties": {
        "norad_id": 34487,
        "name": "IRIDIUM 33 DEB",
        "group": "iridium-33-debris",
        "lat": -15.27478888129966,
        "lon": 12.289186520686965,
        "alt_km": 772.8364005802341,
        "timestamp": "2025-12-10T14:53:37.473349+00:00",
        "meta_object_name": "IRIDIUM 33 DEB",
        "meta_object_id": "1997-051GC",
        "meta_epoch": "2025-12-10T01:47:16.386144",
        "meta_mean_motion": 14.4321077,
        "meta_eccentricity": 0.00325626,
        "meta_inclination": 86.3436,
        "meta_ra_of_asc_node": 13.5248,
        "meta_arg_of_pericenter": 136.7627,
        "meta_mean_anomaly": 252.8644,
        "meta_ephemeris_type": 0,
        "meta_classification_type": "U",
        "meta_norad_cat_id": 34487,
        "meta_element_set_no": 999,
        "meta_rev_at_epoch": 88210,
        "meta_bstar": 0.00027422216,
        "meta_mean_motion_dot": 9.48e-06,
        "meta_mean_motion_ddot": 0,
        "tle_line1": "1 34487U 97051GC  25344.07449521  .00000948  00000+0  27422-3 0  9998",
        "tle_line2": "2 34487  86.3436  13.5248 0032562 136.7627 252.8644 14.43210770882100"
      },
      "geometry": {
        "type": "Point",
        "coordinates": [
          12.289186520686965,
          -15.27478888129966
        ]
      }
    },
    {
      "type": "Feature",
      "properties": {
        "norad_id": 34488,
        "name": "IRIDIUM 33 DEB",
        "group": "iridium-33-debris",
        "lat": 19.09058306075573,
        "lon": -51.86311602163482,
        "alt_km": 472.4567806000168,
        "timestamp": "2025-12-10T14:53:37.473358+00:00",
        "meta_object_name": "IRIDIUM 33 DEB",
        "meta_object_id": "1997-051GD",
        "meta_epoch": "2025-12-09T15:14:24.291168",
        "meta_mean_motion": 15.28228201,
        "meta_eccentricity": 0.0014113,
        "meta_inclination": 86.3246,
        "meta_ra_of_asc_node": 307.3494,
        "meta_arg_of_pericenter": 56.5071,
        "meta_mean_anomaly": 303.7522,
        "meta_ephemeris_type": 0,
        "meta_classification_type": "U",
        "meta_norad_cat_id": 34488,
        "meta_element_set_no": 999,
        "meta_rev_at_epoch": 89192,
        "meta_bstar": 0.0059279,
        "meta_mean_motion_dot": 0.00166796,
        "meta_mean_motion_ddot": 0,
        "tle_line1": "1 34488U 97051GD  25343.63500337  .00166796  00000+0  59279-2 0  9991",
        "tle_line2": "2 34488  86.3246 307.3494 0014113  56.5071 303.7522 15.28228201891924"
      },
      "geometry": {
        "type": "Point",
        "coordinates": [
          -51.86311602163482,
          19.09058306075573
        ]
      }
    }
  ]
}